{
"type": "FeatureCollection",
"name": "pharmacy",
"crs": { "type": "name", "properties": { "name": "urn:ogc:def:crs:OGC:1.3:CRS84" } },
"features": [
{ "type": "Feature", "properties": { "fid": 282, "nimi": "Maaülikooli Apteek", "alias": null, "ylemgrupp": "Tervis", "grupp": "tervisekaubad", "alamgrupp": "apteek", "tyypnimi": "üldapteek", "aadress": "Tartu maakond, Tartu linn, Tartu linn, F. R. Kreutzwaldi tn 62", "adrid": 3082246, "adsoid": "ME01668626", "mk": "Tartu maakond", "ov": "Tartu linn", "ay": "Tartu linn", "www": null, "url": null, "email": "maaylikooliapteek@hot.ee", "telefon": "7313204", "allikas": "Ravimiamet.Apteegid", "andmeseis": "02.04.2024", "poi_id": 128565, "id": null, "vid": "1319", "tyyp": 450101, "x": 657163, "y": 6475558, "pikkus": 26.6881148, "laius": 58.3921295, "kiht": "hp_tervisekaubad" }, "geometry": { "type": "Point", "coordinates": [ 26.688114836243578, 58.39212953392019 ] } },
{ "type": "Feature", "properties": { "fid": 298, "nimi": "Ravana Apteek", "alias": null, "ylemgrupp": "Tervis", "grupp": "tervisekaubad", "alamgrupp": "apteek", "tyypnimi": "üldapteek", "aadress": "Tartu maakond, Tartu linn, Tartu linn, Võru tn 77", "adrid": 3073423, "adsoid": "ME03206220", "mk": "Tartu maakond", "ov": "Tartu linn", "ay": "Tartu linn", "www": "https://www.benu.ee/leia-apteek?vars/pharmacy/65", "url": null, "email": "benu.5182@benu.ee", "telefon": "73 46 538", "allikas": "Ravimiamet.Apteegid", "andmeseis": "02.04.2024", "poi_id": 128711, "id": "163", "vid": "233", "tyyp": 450101, "x": 659218, "y": 6471770, "pikkus": 26.7205985, "laius": 58.3574022, "kiht": "hp_tervisekaubad" }, "geometry": { "type": "Point", "coordinates": [ 26.720598456232182, 58.357402167856918 ] } },
{ "type": "Feature", "properties": { "fid": 308, "nimi": "Tamme Apteek", "alias": null, "ylemgrupp": "Tervis", "grupp": "tervisekaubad", "alamgrupp": "apteek", "tyypnimi": "üldapteek", "aadress": "Tartu maakond, Tartu linn, Tartu linn, L. Puusepa tn 1a", "adrid": 3081414, "adsoid": "ME01062468", "mk": "Tartu maakond", "ov": "Tartu linn", "ay": "Tartu linn", "www": null, "url": null, "email": "tammeapt@apotheka.ee", "telefon": "7319142", "allikas": "Ravimiamet.Apteegid", "andmeseis": "02.04.2024", "poi_id": 128765, "id": null, "vid": "38", "tyyp": 450101, "x": 658232, "y": 6472869, "pikkus": 26.704521, "laius": 58.3676139, "kiht": "hp_tervisekaubad" }, "geometry": { "type": "Point", "coordinates": [ 26.704521017003895, 58.367613908373549 ] } },
{ "type": "Feature", "properties": { "fid": 353, "nimi": "Raatuse Tervisekeskuse Südameapteek", "alias": "Raatuse Apteek", "ylemgrupp": "Tervis", "grupp": "tervisekaubad", "alamgrupp": "apteek", "tyypnimi": "üldapteek", "aadress": "Tartu maakond, Tartu linn, Tartu linn, Raatuse tn 21", "adrid": 3109315, "adsoid": "EE03943216", "mk": "Tartu maakond", "ov": "Tartu linn", "ay": "Tartu linn", "www": null, "url": null, "email": "raatuse@uusapteek.ee", "telefon": "7384364", "allikas": "Ravimiamet.Apteegid", "andmeseis": "02.04.2024", "poi_id": 128688, "id": null, "vid": "1555", "tyyp": 450101, "x": 659714, "y": 6474502, "pikkus": 26.7309565, "laius": 58.3817308, "kiht": "hp_tervisekaubad" }, "geometry": { "type": "Point", "coordinates": [ 26.730956451128044, 58.381730842998593 ] } },
{ "type": "Feature", "properties": { "fid": 354, "nimi": "Raekoja Apteek", "alias": null, "ylemgrupp": "Tervis", "grupp": "tervisekaubad", "alamgrupp": "apteek", "tyypnimi": "üldapteek", "aadress": "Tartu maakond, Tartu linn, Tartu linn, Raekoja plats 1a", "adrid": 3054419, "adsoid": "CU00491120", "mk": "Tartu maakond", "ov": "Tartu linn", "ay": "Tartu linn", "www": null, "url": null, "email": "raekoja@apotheka.ee", "telefon": "7423560", "allikas": "Ravimiamet.Apteegid", "andmeseis": "02.04.2024", "poi_id": 128689, "id": null, "vid": "137", "tyyp": 450101, "x": 659246, "y": 6474311, "pikkus": 26.7228403, "laius": 58.3801857, "kiht": "hp_tervisekaubad" }, "geometry": { "type": "Point", "coordinates": [ 26.722840312623642, 58.380185697439615 ] } },
{ "type": "Feature", "properties": { "fid": 355, "nimi": "Tartu Kaubamaja Apteek", "alias": "Raekoja Apteek HA1", "ylemgrupp": "Tervis", "grupp": "tervisekaubad", "alamgrupp": "apteek", "tyypnimi": "üldapteek", "aadress": "Tartu maakond, Tartu linn, Tartu linn, Riia tn 1", "adrid": 3109305, "adsoid": "ME01151342", "mk": "Tartu maakond", "ov": "Tartu linn", "ay": "Tartu linn", "www": null, "url": null, "email": "kaubamaja@apotheka.ee", "telefon": "7314914", "allikas": "Ravimiamet.Apteegid", "andmeseis": "02.04.2024", "poi_id": 128690, "id": null, "vid": "1496", "tyyp": 450101, "x": 659523, "y": 6474069, "pikkus": 26.7274031, "laius": 58.3779149, "kiht": "hp_tervisekaubad" }, "geometry": { "type": "Point", "coordinates": [ 26.727403080839053, 58.377914871655186 ] } },
{ "type": "Feature", "properties": { "fid": 356, "nimi": "Raadi Apteek", "alias": "Raekoja Apteek HA2", "ylemgrupp": "Tervis", "grupp": "tervisekaubad", "alamgrupp": "apteek", "tyypnimi": "üldapteek", "aadress": "Tartu maakond, Tartu linn, Tartu linn, Narva mnt 112", "adrid": 3087111, "adsoid": "ME03162784", "mk": "Tartu maakond", "ov": "Tartu linn", "ay": "Tartu linn", "www": null, "url": null, "email": "raadi@apotheka.ee", "telefon": "7427469", "allikas": "Ravimiamet.Apteegid", "andmeseis": "02.04.2024", "poi_id": 128691, "id": null, "vid": "1494", "tyyp": 450101, "x": 659606, "y": 6475625, "pikkus": 26.7299069, "laius": 58.3918407, "kiht": "hp_tervisekaubad" }, "geometry": { "type": "Point", "coordinates": [ 26.729906916158637, 58.391840723427634 ] } },
{ "type": "Feature", "properties": { "fid": 360, "nimi": "Raja Südameapteek", "alias": null, "ylemgrupp": "Tervis", "grupp": "tervisekaubad", "alamgrupp": "apteek", "tyypnimi": "üldapteek", "aadress": "Tartu maakond, Tartu linn, Tartu linn, Raja tn 31", "adrid": 3078578, "adsoid": "ME00770673", "mk": "Tartu maakond", "ov": "Tartu linn", "ay": "Tartu linn", "www": null, "url": null, "email": "raja@sydameapteek.ee", "telefon": "7380267", "allikas": "Ravimiamet.Apteegid", "andmeseis": "02.04.2024", "poi_id": 128697, "id": null, "vid": "1474", "tyyp": 450101, "x": 656909, "y": 6472325, "pikkus": 26.6815603, "laius": 58.3632102, "kiht": "hp_tervisekaubad" }, "geometry": { "type": "Point", "coordinates": [ 26.681560336842303, 58.363210184160828 ] } },
{ "type": "Feature", "properties": { "fid": 406, "nimi": "Lõunakeskuse Apteek", "alias": null, "ylemgrupp": "Tervis", "grupp": "tervisekaubad", "alamgrupp": "apteek", "tyypnimi": "üldapteek", "aadress": "Tartu maakond, Tartu linn, Tartu linn, Lääneringtee 39", "adrid": 3657058, "adsoid": "ME03220835", "mk": "Tartu maakond", "ov": "Tartu linn", "ay": "Tartu linn", "www": null, "url": null, "email": "lkeskus@apotheka.ee", "telefon": "738 3056", "allikas": "Ravimiamet.Apteegid", "andmeseis": "02.04.2024", "poi_id": 128557, "id": null, "vid": "99", "tyyp": 450101, "x": 656699, "y": 6471722, "pikkus": 26.6775746, "laius": 58.3578813, "kiht": "hp_tervisekaubad" }, "geometry": { "type": "Point", "coordinates": [ 26.677574637875299, 58.357881250992648 ] } },
{ "type": "Feature", "properties": { "fid": 423, "nimi": "Kummeli Apteek", "alias": "Vahi Selveri Apteek", "ylemgrupp": "Tervis", "grupp": "tervisekaubad", "alamgrupp": "apteek", "tyypnimi": "üldapteek", "aadress": "Tartu maakond, Tartu linn, Tartu linn, Vahi tn 62", "adrid": 3060917, "adsoid": "ME03184403", "mk": "Tartu maakond", "ov": "Tartu linn", "ay": "Tartu linn", "www": "https://www.benu.ee/leia-apteek?vars/pharmacy/100", "url": null, "email": "kummeliapt@gmail.com", "telefon": "73 12 003", "allikas": "Ravimiamet.Apteegid", "andmeseis": "02.04.2024", "poi_id": 128811, "id": "566", "vid": "1448", "tyyp": 450101, "x": 659028, "y": 6476703, "pikkus": 26.7207671, "laius": 58.4017257, "kiht": "hp_tervisekaubad" }, "geometry": { "type": "Point", "coordinates": [ 26.720767110026877, 58.401725651217419 ] } },
{ "type": "Feature", "properties": { "fid": 424, "nimi": "Vaksali Apteek", "alias": null, "ylemgrupp": "Tervis", "grupp": "tervisekaubad", "alamgrupp": "apteek", "tyypnimi": "üldapteek", "aadress": "Tartu maakond, Tartu linn, Tartu linn, Vaksali tn 17", "adrid": 3062467, "adsoid": "ME00750651", "mk": "Tartu maakond", "ov": "Tartu linn", "ay": "Tartu linn", "www": null, "url": null, "email": "mirje.opmann@mail.ee", "telefon": "7301275", "allikas": "Ravimiamet.Apteegid", "andmeseis": "02.04.2024", "poi_id": 128812, "id": null, "vid": "1429", "tyyp": 450101, "x": 658523, "y": 6473437, "pikkus": 26.7098762, "laius": 58.3726073, "kiht": "hp_tervisekaubad" }, "geometry": { "type": "Point", "coordinates": [ 26.709876183538764, 58.372607336369953 ] } },
{ "type": "Feature", "properties": { "fid": 429, "nimi": "Tartu Sõbra Apteek", "alias": "Tartu Sõbra Apteek Sõbra Prisma", "ylemgrupp": "Tervis", "grupp": "tervisekaubad", "alamgrupp": "apteek", "tyypnimi": "üldapteek", "aadress": "Tartu maakond, Tartu linn, Tartu linn, Sõbra tn 58", "adrid": 3117787, "adsoid": "ME00750705", "mk": "Tartu maakond", "ov": "Tartu linn", "ay": "Tartu linn", "www": "https://www.benu.ee/leia-apteek?vars/pharmacy/67", "url": null, "email": "benu.5137@benu.ee", "telefon": "73 36 655", "allikas": "Ravimiamet.Apteegid", "andmeseis": "02.04.2024", "poi_id": 128779, "id": "9633", "vid": "1338", "tyyp": 450101, "x": 660595, "y": 6472730, "pikkus": 26.7447775, "laius": 58.3655079, "kiht": "hp_tervisekaubad" }, "geometry": { "type": "Point", "coordinates": [ 26.744777485181725, 58.365507875258359 ] } },
{ "type": "Feature", "properties": { "fid": 431, "nimi": "Tasku Apteek", "alias": null, "ylemgrupp": "Tervis", "grupp": "tervisekaubad", "alamgrupp": "apteek", "tyypnimi": "üldapteek", "aadress": "Tartu maakond, Tartu linn, Tartu linn, Turu tn 2", "adrid": 3070741, "adsoid": "CU03419947", "mk": "Tartu maakond", "ov": "Tartu linn", "ay": "Tartu linn", "www": null, "url": null, "email": "tasku@apotheka.ee", "telefon": "7305525", "allikas": "Ravimiamet.Apteegid", "andmeseis": "02.04.2024", "poi_id": 128782, "id": null, "vid": "322", "tyyp": 450101, "x": 659753, "y": 6474100, "pikkus": 26.7313446, "laius": 58.3781039, "kiht": "hp_tervisekaubad" }, "geometry": { "type": "Point", "coordinates": [ 26.731344567038992, 58.378103930284965 ] } },
{ "type": "Feature", "properties": { "fid": 432, "nimi": "Lõunakeskuse Rimi Apteek", "alias": "Tasku Apteek HA2", "ylemgrupp": "Tervis", "grupp": "tervisekaubad", "alamgrupp": "apteek", "tyypnimi": "üldapteek", "aadress": "Tartu maakond, Tartu linn, Tartu linn, Lääneringtee 37", "adrid": 3657049, "adsoid": "ME00771684", "mk": "Tartu maakond", "ov": "Tartu linn", "ay": "Tartu linn", "www": null, "url": null, "email": "zeplouna@apotheka.ee", "telefon": "7315686", "allikas": "Ravimiamet.Apteegid", "andmeseis": "02.04.2024", "poi_id": 128784, "id": null, "vid": "1500", "tyyp": 450101, "x": 656518, "y": 6471742, "pikkus": 26.6744898, "laius": 58.3581225, "kiht": "hp_tervisekaubad" }, "geometry": { "type": "Point", "coordinates": [ 26.674489794775702, 58.358122535027746 ] } },
{ "type": "Feature", "properties": { "fid": 439, "nimi": "Tähtvere Apteek", "alias": null, "ylemgrupp": "Tervis", "grupp": "tervisekaubad", "alamgrupp": "apteek", "tyypnimi": "üldapteek", "aadress": "Tartu maakond, Tartu linn, Tartu linn, F. Tuglase tn 19", "adrid": 3066202, "adsoid": "CU00486823", "mk": "Tartu maakond", "ov": "Tartu linn", "ay": "Tartu linn", "www": "https://www.euroapteek.ee/apteegid/", "url": null, "email": "A051@ff.euroapteek.ee", "telefon": "82820151", "allikas": "Ravimiamet.Apteegid", "andmeseis": "02.04.2024", "poi_id": 128795, "id": "166", "vid": "138", "tyyp": 450101, "x": 657404, "y": 6474774, "pikkus": 26.6916841, "laius": 58.3850063, "kiht": "hp_tervisekaubad" }, "geometry": { "type": "Point", "coordinates": [ 26.691684148188028, 58.385006266745137 ] } },
{ "type": "Feature", "properties": { "fid": 440, "nimi": "Maarjamõisa Apteek", "alias": "TÜ Kliinikum Apteek", "ylemgrupp": "Tervis", "grupp": "tervisekaubad", "alamgrupp": "apteek", "tyypnimi": "üldapteek", "aadress": "Tartu maakond, Tartu linn, Tartu linn, L. Puusepa tn 8", "adrid": 3057122, "adsoid": "EE04072364", "mk": "Tartu maakond", "ov": "Tartu linn", "ay": "Tartu linn", "www": null, "url": null, "email": "APAD@kliinikum.ee", "telefon": "7319556", "allikas": "Ravimiamet.Apteegid", "andmeseis": "02.04.2024", "poi_id": 128797, "id": null, "vid": "1485", "tyyp": 450101, "x": 658005, "y": 6472953, "pikkus": 26.7006977, "laius": 58.3684508, "kiht": "hp_tervisekaubad" }, "geometry": { "type": "Point", "coordinates": [ 26.700697702013098, 58.368450771147835 ] } },
{ "type": "Feature", "properties": { "fid": 460, "nimi": "Kvartali Apteek", "alias": null, "ylemgrupp": "Tervis", "grupp": "tervisekaubad", "alamgrupp": "apteek", "tyypnimi": "üldapteek", "aadress": "Tartu maakond, Tartu linn, Tartu linn, Riia tn 2", "adrid": 3069677, "adsoid": "ME03518958", "mk": "Tartu maakond", "ov": "Tartu linn", "ay": "Tartu linn", "www": null, "url": null, "email": "kvartali@apotheka.ee", "telefon": "7330304", "allikas": "Ravimiamet.Apteegid", "andmeseis": "02.04.2024", "poi_id": 128513, "id": null, "vid": "235", "tyyp": 450101, "x": 659615, "y": 6473970, "pikkus": 26.7289087, "laius": 58.3769903, "kiht": "hp_tervisekaubad" }, "geometry": { "type": "Point", "coordinates": [ 26.728908662404407, 58.376990302999459 ] } },
{ "type": "Feature", "properties": { "fid": 467, "nimi": "Anne Selveri Apteek", "alias": null, "ylemgrupp": "Tervis", "grupp": "tervisekaubad", "alamgrupp": "apteek", "tyypnimi": "üldapteek", "aadress": "Tartu maakond, Tartu linn, Tartu linn, Kalda tee 43", "adrid": 3064527, "adsoid": "ME01098785", "mk": "Tartu maakond", "ov": "Tartu linn", "ay": "Tartu linn", "www": null, "url": null, "email": "anneselver@apotheka.ee", "telefon": "7412097", "allikas": "Ravimiamet.Apteegid", "andmeseis": "02.04.2024", "poi_id": 128369, "id": null, "vid": "95", "tyyp": 450101, "x": 661826, "y": 6473144, "pikkus": 26.7660785, "laius": 58.3687645, "kiht": "hp_tervisekaubad" }, "geometry": { "type": "Point", "coordinates": [ 26.766078539921004, 58.368764455357372 ] } },
{ "type": "Feature", "properties": { "fid": 468, "nimi": "Annelinna Apteek", "alias": null, "ylemgrupp": "Tervis", "grupp": "tervisekaubad", "alamgrupp": "apteek", "tyypnimi": "üldapteek", "aadress": "Tartu maakond, Tartu linn, Tartu linn, Anne tn 57", "adrid": 3059218, "adsoid": "ME00751471", "mk": "Tartu maakond", "ov": "Tartu linn", "ay": "Tartu linn", "www": "https://www.euroapteek.ee/apteegid/", "url": null, "email": "A007@euroapteek.ee", "telefon": "82820137", "allikas": "Ravimiamet.Apteegid", "andmeseis": "02.04.2024", "poi_id": 128371, "id": "203", "vid": "1327", "tyyp": 450101, "x": 661240, "y": 6473820, "pikkus": 26.7565463, "laius": 58.3750524, "kiht": "hp_tervisekaubad" }, "geometry": { "type": "Point", "coordinates": [ 26.756546329427898, 58.375052390122484 ] } },
{ "type": "Feature", "properties": { "fid": 469, "nimi": "Kalda tee Euroapteek", "alias": "Annelinna Apteek HA1", "ylemgrupp": "Tervis", "grupp": "tervisekaubad", "alamgrupp": "apteek", "tyypnimi": "üldapteek", "aadress": "Tartu maakond, Tartu linn, Tartu linn, Kalda tee 32", "adrid": 3072163, "adsoid": "ME00752208", "mk": "Tartu maakond", "ov": "Tartu linn", "ay": "Tartu linn", "www": "https://www.euroapteek.ee/apteegid/", "url": null, "email": "A013@euroapteek.ee", "telefon": "82820143", "allikas": "Ravimiamet.Apteegid", "andmeseis": "02.04.2024", "poi_id": 128372, "id": "209", "vid": "1527", "tyyp": 450101, "x": 661975, "y": 6473282, "pikkus": 26.7687184, "laius": 58.3699529, "kiht": "hp_tervisekaubad" }, "geometry": { "type": "Point", "coordinates": [ 26.768718359955141, 58.369952938613729 ] } },
{ "type": "Feature", "properties": { "fid": 471, "nimi": "Annelinna Prisma Südameapteek", "alias": null, "ylemgrupp": "Tervis", "grupp": "tervisekaubad", "alamgrupp": "apteek", "tyypnimi": "üldapteek", "aadress": "Tartu maakond, Tartu linn, Tartu linn, Nõlvaku tn 2", "adrid": 3108413, "adsoid": "ME02167856", "mk": "Tartu maakond", "ov": "Tartu linn", "ay": "Tartu linn", "www": null, "url": null, "email": "annelinna@sydameapteek.ee", "telefon": "7485803", "allikas": "Ravimiamet.Apteegid", "andmeseis": "02.04.2024", "poi_id": 128375, "id": null, "vid": "131", "tyyp": 450101, "x": 662584, "y": 6473993, "pikkus": 26.7796221, "laius": 58.3761045, "kiht": "hp_tervisekaubad" }, "geometry": { "type": "Point", "coordinates": [ 26.779622065624455, 58.376104472903812 ] } },
{ "type": "Feature", "properties": { "fid": 518, "nimi": "Eedeni Keskuse Apteek", "alias": null, "ylemgrupp": "Tervis", "grupp": "tervisekaubad", "alamgrupp": "apteek", "tyypnimi": "üldapteek", "aadress": "Tartu maakond, Tartu linn, Tartu linn, Kalda tee 1c", "adrid": 3047585, "adsoid": "ME00770995", "mk": "Tartu maakond", "ov": "Tartu linn", "ay": "Tartu linn", "www": null, "url": null, "email": "kaldatee@apotheka.ee", "telefon": "748 1318", "allikas": "Ravimiamet.Apteegid", "andmeseis": "02.04.2024", "poi_id": 128389, "id": null, "vid": "230", "tyyp": 450101, "x": 660876, "y": 6473590, "pikkus": 26.7501634, "laius": 58.3731229, "kiht": "hp_tervisekaubad" }, "geometry": { "type": "Point", "coordinates": [ 26.750163446193909, 58.373122881099775 ] } },
{ "type": "Feature", "properties": { "fid": 520, "nimi": "Elite Apteek", "alias": null, "ylemgrupp": "Tervis", "grupp": "tervisekaubad", "alamgrupp": "apteek", "tyypnimi": "üldapteek", "aadress": "Tartu maakond, Tartu linn, Tartu linn, Sangla tn 63", "adrid": 3054272, "adsoid": "ME00769446", "mk": "Tartu maakond", "ov": "Tartu linn", "ay": "Tartu linn", "www": "http://www.elitekliinik.ee/elite/elite-apteek/", "url": null, "email": "elite.apteek@mail.ee", "telefon": "74 09 938", "allikas": "Ravimiamet.Apteegid", "andmeseis": "02.04.2024", "poi_id": 128392, "id": "253", "vid": "246", "tyyp": 450101, "x": 657046, "y": 6473108, "pikkus": 26.6844382, "laius": 58.3701877, "kiht": "hp_tervisekaubad" }, "geometry": { "type": "Point", "coordinates": [ 26.684438152555686, 58.370187738214305 ] } },
{ "type": "Feature", "properties": { "fid": 569, "nimi": "Karete Apteek", "alias": null, "ylemgrupp": "Tervis", "grupp": "tervisekaubad", "alamgrupp": "apteek", "tyypnimi": "üldapteek", "aadress": "Tartu maakond, Tartu linn, Tartu linn, Jalaka tn 34", "adrid": 3048013, "adsoid": "ME00751362", "mk": "Tartu maakond", "ov": "Tartu linn", "ay": "Tartu linn", "www": null, "url": null, "email": "karete@apotheka.ee", "telefon": "7366890", "allikas": "Ravimiamet.Apteegid", "andmeseis": "02.04.2024", "poi_id": 128460, "id": null, "vid": "98", "tyyp": 450101, "x": 659445, "y": 6470948, "pikkus": 26.7239089, "laius": 58.3499402, "kiht": "hp_tervisekaubad" }, "geometry": { "type": "Point", "coordinates": [ 26.723908861320083, 58.349940213012523 ] } },
{ "type": "Feature", "properties": { "fid": 571, "nimi": "Kastani Apteek", "alias": null, "ylemgrupp": "Tervis", "grupp": "tervisekaubad", "alamgrupp": "apteek", "tyypnimi": "üldapteek", "aadress": "Tartu maakond, Tartu linn, Tartu linn, Lembitu tn 2", "adrid": 3097832, "adsoid": "ME01691530", "mk": "Tartu maakond", "ov": "Tartu linn", "ay": "Tartu linn", "www": null, "url": null, "email": "kastani@apotheka.ee", "telefon": "7420891", "allikas": "Ravimiamet.Apteegid", "andmeseis": "02.04.2024", "poi_id": 128464, "id": null, "vid": "279", "tyyp": 450101, "x": 658521, "y": 6473155, "pikkus": 26.7096578, "laius": 58.3700783, "kiht": "hp_tervisekaubad" }, "geometry": { "type": "Point", "coordinates": [ 26.709657845928184, 58.370078349871207 ] } },
{ "type": "Feature", "properties": { "fid": 578, "nimi": "Kivilinna Konsumi Apteek", "alias": null, "ylemgrupp": "Tervis", "grupp": "tervisekaubad", "alamgrupp": "apteek", "tyypnimi": "üldapteek", "aadress": "Tartu maakond, Tartu linn, Tartu linn, Jaama tn 173", "adrid": 3086955, "adsoid": "ME00751932", "mk": "Tartu maakond", "ov": "Tartu linn", "ay": "Tartu linn", "www": null, "url": null, "email": "kivilinn@apotheka.ee", "telefon": "7482411", "allikas": "Ravimiamet.Apteegid", "andmeseis": "02.04.2024", "poi_id": 128479, "id": null, "vid": "155", "tyyp": 450101, "x": 661674, "y": 6474335, "pikkus": 26.7643226, "laius": 58.37951, "kiht": "hp_tervisekaubad" }, "geometry": { "type": "Point", "coordinates": [ 26.764322591998525, 58.379510018749592 ] } },
{ "type": "Feature", "properties": { "fid": 7310, "nimi": "Zeppelini Apteek", "alias": "Sõbra Selveri Apteek HA2", "ylemgrupp": "Tervis", "grupp": "tervisekaubad", "alamgrupp": "apteek", "tyypnimi": "üldapteek", "aadress": "Tartu maakond, Tartu linn, Tartu linn, Turu tn 14", "adrid": 3069159, "adsoid": "ME00779481", "mk": "Tartu maakond", "ov": "Tartu linn", "ay": "Tartu linn", "www": "https://www.benu.ee/leia-apteek?vars/pharmacy/74", "url": null, "email": "benu.5139@benu.ee", "telefon": "44 25 499", "allikas": "Ravimiamet.Apteegid", "andmeseis": "02.04.2024", "poi_id": 128754, "id": "243", "vid": "1514", "tyyp": 450101, "x": 660031, "y": 6473734, "pikkus": 26.7358422, "laius": 58.3747184, "kiht": "hp_tervisekaubad" }, "geometry": { "type": "Point", "coordinates": [ 26.735842183200955, 58.374718401202053 ] } },
{ "type": "Feature", "properties": { "fid": 7484, "nimi": "Anne Südameapteek", "alias": null, "ylemgrupp": "Tervis", "grupp": "tervisekaubad", "alamgrupp": "apteek", "tyypnimi": "üldapteek", "aadress": "Tartu maakond, Tartu linn, Tartu linn, Jaama tn 74", "adrid": 3109388, "adsoid": "ME01040860", "mk": "Tartu maakond", "ov": "Tartu linn", "ay": "Tartu linn", "www": null, "url": null, "email": "anneapt@sydameapteek.ee", "telefon": "7317050", "allikas": "Ravimiamet.Apteegid", "andmeseis": "02.04.2024", "poi_id": 128370, "id": null, "vid": "238", "tyyp": 450101, "x": 660896, "y": 6474553, "pikkus": 26.7511809, "laius": 58.3817507, "kiht": "hp_tervisekaubad" }, "geometry": { "type": "Point", "coordinates": [ 26.751180861829013, 58.381750670615773 ] } },
{ "type": "Feature", "properties": { "fid": 9250, "nimi": "Sõbrakeskuse Euroapteek", "alias": "Tasku Apteek HA1", "ylemgrupp": "Tervis", "grupp": "tervisekaubad", "alamgrupp": "apteek", "tyypnimi": "üldapteek", "aadress": "Tartu maakond, Tartu linn, Tartu linn, Võru tn 55f", "adrid": 3041040, "adsoid": "ME00752284", "mk": "Tartu maakond", "ov": "Tartu linn", "ay": "Tartu linn", "www": "https://www.euroapteek.ee/apteegid/", "url": null, "email": "sobra@apotheka.ee", "telefon": "82820150", "allikas": "Ravimiamet.Apteegid", "andmeseis": "02.04.2024", "poi_id": 128783, "id": "600", "vid": "1534", "tyyp": 450101, "x": 659112, "y": 6472641, "pikkus": 26.7193853, "laius": 58.3652516, "kiht": "hp_tervisekaubad" }, "geometry": { "type": "Point", "coordinates": [ 26.719385346385245, 58.365251623616935 ] } },
{ "type": "Feature", "properties": { "fid": 18687, "nimi": "Uus Apteek", "alias": null, "ylemgrupp": "Tervis", "grupp": "tervisekaubad", "alamgrupp": "apteek", "tyypnimi": "üldapteek", "aadress": "Tartu maakond, Tartu linn, Tartu linn, Pikk tn 64", "adrid": 3099464, "adsoid": "ME00770930", "mk": "Tartu maakond", "ov": "Tartu linn", "ay": "Tartu linn", "www": null, "url": null, "email": "uusapteek@uusapteek.ee", "telefon": "7406396", "allikas": "Ravimiamet.Apteegid", "andmeseis": "02.04.2024", "poi_id": 128805, "id": null, "vid": "234", "tyyp": 450101, "x": 660207, "y": 6474371, "pikkus": 26.7392985, "laius": 58.3803749, "kiht": "hp_tervisekaubad" }, "geometry": { "type": "Point", "coordinates": [ 26.739298471608748, 58.380374931727808 ] } },
{ "type": "Feature", "properties": { "fid": 18694, "nimi": "Sõbra Selveri Apteek", "alias": null, "ylemgrupp": "Tervis", "grupp": "tervisekaubad", "alamgrupp": "apteek", "tyypnimi": "üldapteek", "aadress": "Tartu maakond, Tartu linn, Tartu linn, Sõbra tn 41", "adrid": 3063111, "adsoid": "ME00750714", "mk": "Tartu maakond", "ov": "Tartu linn", "ay": "Tartu linn", "www": "https://www.benu.ee/leia-apteek?vars/pharmacy/72", "url": null, "email": "benu.5102@benu.ee", "telefon": "74 02 358", "allikas": "Ravimiamet.Apteegid", "andmeseis": "02.04.2024", "poi_id": 128752, "id": "518", "vid": "152", "tyyp": 450101, "x": 660375, "y": 6472553, "pikkus": 26.740889, "laius": 58.3640011, "kiht": "hp_tervisekaubad" }, "geometry": { "type": "Point", "coordinates": [ 26.740889022436264, 58.364001053368057 ] } },
{ "type": "Feature", "properties": { "fid": 20435, "nimi": "Ilmatsalu Euroapteek", "alias": "Annelinna Apteek HA2", "ylemgrupp": "Tervis", "grupp": "tervisekaubad", "alamgrupp": "apteek", "tyypnimi": "üldapteek", "aadress": "Tartu maakond, Tartu linn, Tartu linn, Ilmatsalu tn 11", "adrid": 3042720, "adsoid": "ME01039839", "mk": "Tartu maakond", "ov": "Tartu linn", "ay": "Tartu linn", "www": "https://www.euroapteek.ee/apteegid/", "url": null, "email": "A019@euroapteek.ee", "telefon": "53 066 786", "allikas": "Ravimiamet.Apteegid", "andmeseis": "02.04.2024", "poi_id": 128373, "id": "214", "vid": "1526", "tyyp": 450101, "x": 657046, "y": 6474013, "pikkus": 26.6850482, "laius": 58.3783072, "kiht": "hp_tervisekaubad" }, "geometry": { "type": "Point", "coordinates": [ 26.685048191181981, 58.378307157258412 ] } },
{ "type": "Feature", "properties": { "fid": 46583, "nimi": "Tartu Kalda Suur Apteek", "alias": null, "ylemgrupp": "Tervis", "grupp": "tervisekaubad", "alamgrupp": "apteek", "tyypnimi": "üldapteek", "aadress": "Tartu maakond, Tartu linn, Tartu linn, Kalda tee 15", "adrid": 3088135, "adsoid": "ME03696680", "mk": "Tartu maakond", "ov": "Tartu linn", "ay": "Tartu linn", "www": "https://www.euroapteek.ee/apteegid/", "url": null, "email": "a076@ff.euroapteek.ee", "telefon": "82820116", "allikas": "Ravimiamet.Apteegid", "andmeseis": "02.04.2024", "poi_id": 158112, "id": "574", "vid": "1410", "tyyp": 450101, "x": 661638, "y": 6473379, "pikkus": 26.7630401, "laius": 58.3709447, "kiht": "hp_tervisekaubad" }, "geometry": { "type": "Point", "coordinates": [ 26.763040101393084, 58.370944706669668 ] } },
{ "type": "Feature", "properties": { "fid": 46767, "nimi": "Annelinna Tervisekeskuse Apteek", "alias": null, "ylemgrupp": "Tervis", "grupp": "tervisekaubad", "alamgrupp": "apteek", "tyypnimi": "üldapteek", "aadress": "Tartu maakond, Tartu linn, Tartu linn, Mõisavahe tn 34b", "adrid": 3073676, "adsoid": "ME03792966", "mk": "Tartu maakond", "ov": "Tartu linn", "ay": "Tartu linn", "www": "https://www.benu.ee/leia-apteek?vars/pharmacy/107", "url": null, "email": "annelinnatkapteek@gmail.com", "telefon": "7 330 006", "allikas": "Ravimiamet.Apteegid", "andmeseis": "02.04.2024", "poi_id": 160147, "id": "585", "vid": "1471", "tyyp": 450101, "x": 662612, "y": 6473554, "pikkus": 26.779781, "laius": 58.3721581, "kiht": "hp_tervisekaubad" }, "geometry": { "type": "Point", "coordinates": [ 26.77978098139177, 58.372158074751283 ] } },
{ "type": "Feature", "properties": { "fid": 53961, "nimi": "Tartu Rebase Rimi Apteek", "alias": "Eedeni Keskuse Apteek HA1", "ylemgrupp": "Tervis", "grupp": "tervisekaubad", "alamgrupp": "apteek", "tyypnimi": "üldapteek", "aadress": "Tartu maakond, Tartu linn, Tartu linn, Rebase tn 10", "adrid": 3047366, "adsoid": "ME01064428", "mk": "Tartu maakond", "ov": "Tartu linn", "ay": "Tartu linn", "www": null, "url": null, "email": "citymapt@apotheka.ee", "telefon": "7480643", "allikas": "Ravimiamet.Apteegid", "andmeseis": "02.04.2024", "poi_id": 128390, "id": null, "vid": "1491", "tyyp": 450101, "x": 660302, "y": 6473057, "pikkus": 26.739998, "laius": 58.3685487, "kiht": "hp_tervisekaubad" }, "geometry": { "type": "Point", "coordinates": [ 26.739998019150885, 58.368548737866377 ] } },
{ "type": "Feature", "properties": { "fid": 54809, "nimi": "Veeriku Apteek", "alias": "Karete Apteek HA1", "ylemgrupp": "Tervis", "grupp": "tervisekaubad", "alamgrupp": "apteek", "tyypnimi": "üldapteek", "aadress": "Tartu maakond, Tartu linn, Tartu linn, Vitamiini tn 1", "adrid": 3075020, "adsoid": "ME00997892", "mk": "Tartu maakond", "ov": "Tartu linn", "ay": "Tartu linn", "www": null, "url": null, "email": "veeriku@apotheka.ee", "telefon": "7336744", "allikas": "Ravimiamet.Apteegid", "andmeseis": "02.04.2024", "poi_id": 128461, "id": null, "vid": "1501", "tyyp": 450101, "x": 657753, "y": 6473823, "pikkus": 26.6970012, "laius": 58.3763497, "kiht": "hp_tervisekaubad" }, "geometry": { "type": "Point", "coordinates": [ 26.697001234281799, 58.37634973841125 ] } },
{ "type": "Feature", "properties": { "fid": 55326, "nimi": "Tartu Küüni Apteek", "alias": "Ülikooli Apteegi Tartu Apteek;Euro Apteek", "ylemgrupp": "Tervis", "grupp": "tervisekaubad", "alamgrupp": "apteek", "tyypnimi": "üldapteek", "aadress": "Tartu maakond, Tartu linn, Tartu linn, Küüni tn 5b", "adrid": 3058787, "adsoid": "EE00771690", "mk": "Tartu maakond", "ov": "Tartu linn", "ay": "Tartu linn", "www": "https://www.euroapteek.ee/apteegid/", "url": null, "email": "A098@ff.euroapteek.ee", "telefon": "52 75 939", "allikas": "Ravimiamet.Apteegid", "andmeseis": "02.04.2024", "poi_id": 128880, "id": "227", "vid": "1334", "tyyp": 450101, "x": 659344, "y": 6474138, "pikkus": 26.7243848, "laius": 58.3785984, "kiht": "hp_tervisekaubad" }, "geometry": { "type": "Point", "coordinates": [ 26.724384815415526, 58.378598370587845 ] } },
{ "type": "Feature", "properties": { "fid": 57031, "nimi": "Sepa Keskuse Apteek", "alias": null, "ylemgrupp": "Tervis", "grupp": "tervisekaubad", "alamgrupp": "apteek", "tyypnimi": "üldapteek", "aadress": "Tartu maakond, Tartu linn, Tartu linn, Sepa tn 21", "adrid": 3056268, "adsoid": "ME00751693", "mk": "Tartu maakond", "ov": "Tartu linn", "ay": "Tartu linn", "www": "https://www.benu.ee/leia-apteek?vars/pharmacy/88", "url": null, "email": "benu.5149@benu.ee", "telefon": "74 09 034", "allikas": "Ravimiamet.Apteegid", "andmeseis": "02.04.2024", "poi_id": 128733, "id": "9247", "vid": "1335", "tyyp": 450101, "x": 660344, "y": 6470908, "pikkus": 26.7392086, "laius": 58.3492578, "kiht": "hp_tervisekaubad" }, "geometry": { "type": "Point", "coordinates": [ 26.739208641676665, 58.349257818055534 ] } },
{ "type": "Feature", "properties": { "fid": 57254, "nimi": "Ringtee Selveri Südameapteek", "alias": null, "ylemgrupp": "Tervis", "grupp": "tervisekaubad", "alamgrupp": "apteek", "tyypnimi": "üldapteek", "aadress": "Tartu maakond, Tartu linn, Tartu linn, Teemandi tn 2", "adrid": 3680503, "adsoid": "ME01125243", "mk": "Tartu maakond", "ov": "Tartu linn", "ay": "Tartu linn", "www": null, "url": null, "email": "ringteeselver@sydameapteek.ee", "telefon": "7390254", "allikas": "Ravimiamet.Apteegid", "andmeseis": "02.04.2024", "poi_id": 128696, "id": null, "vid": "277", "tyyp": 450101, "x": 657236, "y": 6471212, "pikkus": 26.6863809, "laius": 58.3531131, "kiht": "hp_tervisekaubad" }, "geometry": { "type": "Point", "coordinates": [ 26.686380946104446, 58.353113145751479 ] } },
{ "type": "Feature", "properties": { "fid": 57256, "nimi": "TÜ Kliinikum Apteek", "alias": "Maarjamõisa Apteek;Uus Apteek HA1", "ylemgrupp": "Tervis", "grupp": "tervisekaubad", "alamgrupp": "apteek", "tyypnimi": "haiglaapteek", "aadress": "Tartu maakond, Tartu linn, Tartu linn, L. Puusepa tn 8", "adrid": 3057122, "adsoid": "EE04072364", "mk": "Tartu maakond", "ov": "Tartu linn", "ay": "Tartu linn", "www": null, "url": null, "email": "maarjamoisa@apotheka.ee", "telefon": "7318305", "allikas": "Ravimiamet.Apteegid", "andmeseis": "02.04.2024", "poi_id": 128806, "id": null, "vid": "433", "tyyp": 450102, "x": 658005, "y": 6472953, "pikkus": 26.7006977, "laius": 58.3684508, "kiht": "hp_tervisekaubad" }, "geometry": { "type": "Point", "coordinates": [ 26.700697702013098, 58.368450771147835 ] } },
{ "type": "Feature", "properties": { "fid": 57836, "nimi": "Ujula Konsumi Apteek", "alias": null, "ylemgrupp": "Tervis", "grupp": "tervisekaubad", "alamgrupp": "apteek", "tyypnimi": "üldapteek", "aadress": "Tartu maakond, Tartu linn, Tartu linn, Ujula tn 2", "adrid": 3092198, "adsoid": "ME01118846", "mk": "Tartu maakond", "ov": "Tartu linn", "ay": "Tartu linn", "www": null, "url": null, "email": "benu.5138@benu.ee;ujulakonsum@apotheka.ee", "telefon": "7339911;7751800", "allikas": "Ravimiamet.Apteegid", "andmeseis": "02.04.2024", "poi_id": 128753, "id": null, "vid": "1473", "tyyp": 450101, "x": 659274, "y": 6475050, "pikkus": 26.7238346, "laius": 58.3868034, "kiht": "hp_tervisekaubad" }, "geometry": { "type": "Point", "coordinates": [ 26.72383464601867, 58.386803386721887 ] } },
{ "type": "Feature", "properties": { "fid": 76790, "nimi": "Kvissentali Coopi Apteek", "alias": null, "ylemgrupp": "Tervis", "grupp": "tervisekaubad", "alamgrupp": "apteek", "tyypnimi": "üldapteek", "aadress": "Tartu maakond, Tartu linn, Tartu linn, Aruküla tee 5", "adrid": 3594464, "adsoid": "EE03987871", "mk": "Tartu maakond", "ov": "Tartu linn", "ay": "Tartu linn", "www": null, "url": null, "email": null, "telefon": null, "allikas": "Ravimiamet.Apteegid", "andmeseis": "02.04.2024", "poi_id": 221207, "id": null, "vid": "1567", "tyyp": 450101, "x": 658349, "y": 6476690, "pikkus": 26.7091546, "laius": 58.401852, "kiht": "hp_tervisekaubad" }, "geometry": { "type": "Point", "coordinates": [ 26.709154551506611, 58.401852013870183 ] } },
{ "type": "Feature", "properties": { "fid": 80385, "nimi": "Ravila Apteek", "alias": null, "ylemgrupp": "Tervis", "grupp": "tervisekaubad", "alamgrupp": "apteek", "tyypnimi": "üldapteek", "aadress": "Tartu maakond, Tartu linn, Tartu linn, Ravila tn 14d", "adrid": 3622202, "adsoid": "EE04084441", "mk": "Tartu maakond", "ov": "Tartu linn", "ay": "Tartu linn", "www": null, "url": null, "email": null, "telefon": null, "allikas": "Ravimiamet.Apteegid", "andmeseis": "02.04.2024", "poi_id": 230949, "id": null, "vid": "1576", "tyyp": 450101, "x": 657370, "y": 6473044, "pikkus": 26.6899225, "laius": 58.3694999, "kiht": "hp_tervisekaubad" }, "geometry": { "type": "Point", "coordinates": [ 26.689922531294293, 58.369499854863733 ] } }
]
}
