{
"type": "FeatureCollection",
"name": "poi",
"crs": { "type": "name", "properties": { "name": "urn:ogc:def:crs:OGC:1.3:CRS84" } },
"features": [
{ "type": "Feature", "properties": { "fid": 48708, "nimi": "Emajõe Ärikeskus", "alias": "Pläsku;Plasku", "ylemgrupp": "Teenused", "grupp": "kaubandus", "alamgrupp": "ärihoone", "tyypnimi": "nimeline objekt ärihoone", "aadress": "Tartu maakond, Tartu linn, Tartu linn, Soola tn 8", "adrid": 3098438, "adsoid": "ME00774800", "mk": "Tartu maakond", "ov": "Tartu linn", "ay": "Tartu linn", "www": null, "url": null, "email": null, "telefon": null, "allikas": "Maaamet.Aadressiandmete süsteem.Nimeline objekt", "andmeseis": "05.05.2020", "poi_id": 161154, "id": null, "vid": null, "tyyp": 440202, "x": 659744, "y": 6474171, "pikkus": 26.7312354, "laius": 58.378743, "kiht": "hp_arihoone" }, "geometry": { "type": "Point", "coordinates": [ 26.7310642, 58.3783633 ] } }
]
}
