{
"type": "FeatureCollection",
"name": "shelter",
"crs": { "type": "name", "properties": { "name": "urn:ogc:def:crs:OGC:1.3:CRS84" } },
"features": [
{ "type": "Feature", "properties": { "fid": 26160, "nimi": "Tamme staadioni spordihoone", "alias": null, "ylemgrupp": "Riigihaldus", "grupp": "PPA", "alamgrupp": "avalik varjumiskoht", "tyypnimi": "avalik varjumiskoht", "aadress": "Tartu maakond, Tartu linn, Tartu linn, Tamme pst 1", "adrid": 3060499, "adsoid": "ME01993482", "mk": "Tartu maakond", "ov": "Tartu linn", "ay": "Tartu linn", "www": null, "url": null, "email": null, "telefon": null, "allikas": "SMIT.Päästeameti avaandmed", "andmeseis": "02.04.2024", "poi_id": 226013, "id": null, "vid": "LÕ51021", "tyyp": 150301, "x": 658723, "y": 6472722, "pikkus": 26.7128078, "laius": 58.3661188, "kiht": "hp_varjumiskoht" }, "geometry": { "type": "Point", "coordinates": [ 26.712807791291127, 58.366118782968904 ] } },
{ "type": "Feature", "properties": { "fid": 44825, "nimi": "Endine arestimaja", "alias": null, "ylemgrupp": "Riigihaldus", "grupp": "PPA", "alamgrupp": "avalik varjumiskoht", "tyypnimi": "avalik varjumiskoht", "aadress": "Tartu maakond, Tartu linn, Tartu linn, Riia tn 179a", "adrid": 3084070, "adsoid": "ME00770209", "mk": "Tartu maakond", "ov": "Tartu linn", "ay": "Tartu linn", "www": null, "url": null, "email": null, "telefon": null, "allikas": "SMIT.Päästeameti avaandmed", "andmeseis": "02.04.2024", "poi_id": 226000, "id": null, "vid": "LÕ41741", "tyyp": 150301, "x": 656845, "y": 6471606, "pikkus": 26.6799847, "laius": 58.3567848, "kiht": "hp_varjumiskoht" }, "geometry": { "type": "Point", "coordinates": [ 26.679984749763989, 58.35678480256253 ] } },
{ "type": "Feature", "properties": { "fid": 64431, "nimi": "Tartu Forseliuse Kool (Loovusmaja)", "alias": null, "ylemgrupp": "Riigihaldus", "grupp": "PPA", "alamgrupp": "avalik varjumiskoht", "tyypnimi": "avalik varjumiskoht", "aadress": "Tartu maakond, Tartu linn, Tartu linn, Tähe tn 101", "adrid": 3054236, "adsoid": "ME00750563", "mk": "Tartu maakond", "ov": "Tartu linn", "ay": "Tartu linn", "www": null, "url": null, "email": null, "telefon": null, "allikas": "SMIT.Päästeameti avaandmed", "andmeseis": "02.04.2024", "poi_id": 226029, "id": null, "vid": "LÕ46504", "tyyp": 150301, "x": 659760, "y": 6472164, "pikkus": 26.7301256, "laius": 58.3607349, "kiht": "hp_varjumiskoht" }, "geometry": { "type": "Point", "coordinates": [ 26.73012561157319, 58.360734903595493 ] } },
{ "type": "Feature", "properties": { "fid": 64432, "nimi": "Tartu Pärli Kool", "alias": null, "ylemgrupp": "Riigihaldus", "grupp": "PPA", "alamgrupp": "avalik varjumiskoht", "tyypnimi": "avalik varjumiskoht", "aadress": "Tartu maakond, Tartu linn, Tartu linn, Puiestee tn 62", "adrid": 3122382, "adsoid": "ME00750204", "mk": "Tartu maakond", "ov": "Tartu linn", "ay": "Tartu linn", "www": null, "url": null, "email": null, "telefon": null, "allikas": "SMIT.Päästeameti avaandmed", "andmeseis": "02.04.2024", "poi_id": 226031, "id": null, "vid": "LÕ45902", "tyyp": 150301, "x": 659352, "y": 6475527, "pikkus": 26.725495, "laius": 58.391055, "kiht": "hp_varjumiskoht" }, "geometry": { "type": "Point", "coordinates": [ 26.725495009506663, 58.391054997675262 ] } },
{ "type": "Feature", "properties": { "fid": 64434, "nimi": "Tartu Rakenduslik Kolledž", "alias": null, "ylemgrupp": "Riigihaldus", "grupp": "PPA", "alamgrupp": "avalik varjumiskoht", "tyypnimi": "avalik varjumiskoht", "aadress": "Tartu maakond, Tartu linn, Tartu linn, Kopli tn 1", "adrid": 3064140, "adsoid": "EE01902734", "mk": "Tartu maakond", "ov": "Tartu linn", "ay": "Tartu linn", "www": null, "url": null, "email": null, "telefon": null, "allikas": "SMIT.Päästeameti avaandmed", "andmeseis": "02.04.2024", "poi_id": 226033, "id": null, "vid": "LÕ37835", "tyyp": 150301, "x": 658882, "y": 6470882, "pikkus": 26.7142564, "laius": 58.3495568, "kiht": "hp_varjumiskoht" }, "geometry": { "type": "Point", "coordinates": [ 26.714256355104752, 58.349556823948681 ] } },
{ "type": "Feature", "properties": { "fid": 64436, "nimi": "Tartu Veeriku Kool", "alias": null, "ylemgrupp": "Riigihaldus", "grupp": "PPA", "alamgrupp": "avalik varjumiskoht", "tyypnimi": "avalik varjumiskoht", "aadress": "Tartu maakond, Tartu linn, Tartu linn, Veeriku tn 41", "adrid": 3126724, "adsoid": "ME00751910", "mk": "Tartu maakond", "ov": "Tartu linn", "ay": "Tartu linn", "www": null, "url": null, "email": null, "telefon": null, "allikas": "SMIT.Päästeameti avaandmed", "andmeseis": "02.04.2024", "poi_id": 226035, "id": null, "vid": "LÕ73062", "tyyp": 150301, "x": 657157, "y": 6473643, "pikkus": 26.6866916, "laius": 58.3749458, "kiht": "hp_varjumiskoht" }, "geometry": { "type": "Point", "coordinates": [ 26.686691577144202, 58.374945825195709 ] } },
{ "type": "Feature", "properties": { "fid": 64538, "nimi": "Endine ERM-i näitusemaja", "alias": null, "ylemgrupp": "Riigihaldus", "grupp": "PPA", "alamgrupp": "avalik varjumiskoht", "tyypnimi": "avalik varjumiskoht", "aadress": "Tartu maakond, Tartu linn, Tartu linn, J. Kuperjanovi tn 9", "adrid": 3059973, "adsoid": "ME00775420", "mk": "Tartu maakond", "ov": "Tartu linn", "ay": "Tartu linn", "www": null, "url": null, "email": null, "telefon": null, "allikas": "SMIT.Päästeameti avaandmed", "andmeseis": "02.04.2024", "poi_id": 226008, "id": null, "vid": "LÕ31326", "tyyp": 150301, "x": 658595, "y": 6473879, "pikkus": 26.7114155, "laius": 58.3765486, "kiht": "hp_varjumiskoht" }, "geometry": { "type": "Point", "coordinates": [ 26.711415517577286, 58.376548590461624 ] } },
{ "type": "Feature", "properties": { "fid": 64540, "nimi": "Püssirohukelder", "alias": null, "ylemgrupp": "Riigihaldus", "grupp": "PPA", "alamgrupp": "avalik varjumiskoht", "tyypnimi": "avalik varjumiskoht", "aadress": "Tartu maakond, Tartu linn, Tartu linn, Lossi tn 28", "adrid": 3082761, "adsoid": "ME00751729", "mk": "Tartu maakond", "ov": "Tartu linn", "ay": "Tartu linn", "www": null, "url": null, "email": null, "telefon": null, "allikas": "SMIT.Päästeameti avaandmed", "andmeseis": "02.04.2024", "poi_id": 225990, "id": null, "vid": "LÕ40516", "tyyp": 150301, "x": 659020, "y": 6474177, "pikkus": 26.7188865, "laius": 58.3790613, "kiht": "hp_varjumiskoht" }, "geometry": { "type": "Point", "coordinates": [ 26.718886487890536, 58.379061303478132 ] } },
{ "type": "Feature", "properties": { "fid": 64553, "nimi": "Tartu Aleksander Puškini kool", "alias": null, "ylemgrupp": "Riigihaldus", "grupp": "PPA", "alamgrupp": "avalik varjumiskoht", "tyypnimi": "avalik varjumiskoht", "aadress": "Tartu maakond, Tartu linn, Tartu linn, Uus tn 54", "adrid": 3081508, "adsoid": "ME00751207", "mk": "Tartu maakond", "ov": "Tartu linn", "ay": "Tartu linn", "www": null, "url": null, "email": null, "telefon": null, "allikas": "SMIT.Päästeameti avaandmed", "andmeseis": "02.04.2024", "poi_id": 226027, "id": null, "vid": "LÕ10988", "tyyp": 150301, "x": 660564, "y": 6474289, "pikkus": 26.7453341, "laius": 58.3795014, "kiht": "hp_varjumiskoht" }, "geometry": { "type": "Point", "coordinates": [ 26.74533413768593, 58.379501394731278 ] } },
{ "type": "Feature", "properties": { "fid": 64554, "nimi": "Tartu Descartes´i Kool", "alias": null, "ylemgrupp": "Riigihaldus", "grupp": "PPA", "alamgrupp": "avalik varjumiskoht", "tyypnimi": "avalik varjumiskoht", "aadress": "Tartu maakond, Tartu linn, Tartu linn, Anne tn 65", "adrid": 3099641, "adsoid": "ME00751731", "mk": "Tartu maakond", "ov": "Tartu linn", "ay": "Tartu linn", "www": null, "url": null, "email": null, "telefon": null, "allikas": "SMIT.Päästeameti avaandmed", "andmeseis": "02.04.2024", "poi_id": 226028, "id": null, "vid": "LÕ84907", "tyyp": 150301, "x": 661300, "y": 6473883, "pikkus": 26.7576229, "laius": 58.3755889, "kiht": "hp_varjumiskoht" }, "geometry": { "type": "Point", "coordinates": [ 26.757622878214836, 58.37558887021703 ] } },
{ "type": "Feature", "properties": { "fid": 64555, "nimi": "Tartu Jaan Poska Gümnaasium", "alias": null, "ylemgrupp": "Riigihaldus", "grupp": "PPA", "alamgrupp": "avalik varjumiskoht", "tyypnimi": "avalik varjumiskoht", "aadress": "Tartu maakond, Tartu linn, Tartu linn, Vanemuise tn 35", "adrid": 3084304, "adsoid": "ME00772444", "mk": "Tartu maakond", "ov": "Tartu linn", "ay": "Tartu linn", "www": null, "url": null, "email": null, "telefon": null, "allikas": "SMIT.Päästeameti avaandmed", "andmeseis": "02.04.2024", "poi_id": 226030, "id": null, "vid": "LÕ81984", "tyyp": 150301, "x": 659083, "y": 6473763, "pikkus": 26.7196747, "laius": 58.3753281, "kiht": "hp_varjumiskoht" }, "geometry": { "type": "Point", "coordinates": [ 26.719674709745867, 58.375328071192435 ] } },
{ "type": "Feature", "properties": { "fid": 64556, "nimi": "Tartu Linnaraamatukogu", "alias": null, "ylemgrupp": "Riigihaldus", "grupp": "PPA", "alamgrupp": "avalik varjumiskoht", "tyypnimi": "avalik varjumiskoht", "aadress": "Tartu maakond, Tartu linn, Tartu linn, Kompanii tn 3 // 5", "adrid": 3108525, "adsoid": "ME00760495", "mk": "Tartu maakond", "ov": "Tartu linn", "ay": "Tartu linn", "www": null, "url": null, "email": null, "telefon": null, "allikas": "SMIT.Päästeameti avaandmed", "andmeseis": "02.04.2024", "poi_id": 226032, "id": null, "vid": "LÕ78476", "tyyp": 150301, "x": 659290, "y": 6474448, "pikkus": 26.7236895, "laius": 58.3813968, "kiht": "hp_varjumiskoht" }, "geometry": { "type": "Point", "coordinates": [ 26.723689466882341, 58.381396840194462 ] } },
{ "type": "Feature", "properties": { "fid": 64557, "nimi": "Tartu Rakenduslik Kolledž", "alias": null, "ylemgrupp": "Riigihaldus", "grupp": "PPA", "alamgrupp": "avalik varjumiskoht", "tyypnimi": "avalik varjumiskoht", "aadress": "Tartu maakond, Tartu linn, Tartu linn, Põllu tn 11a", "adrid": 3046920, "adsoid": "ME00770517", "mk": "Tartu maakond", "ov": "Tartu linn", "ay": "Tartu linn", "www": null, "url": null, "email": null, "telefon": null, "allikas": "SMIT.Päästeameti avaandmed", "andmeseis": "02.04.2024", "poi_id": 226034, "id": null, "vid": "LÕ94150", "tyyp": 150301, "x": 658651, "y": 6476363, "pikkus": 26.7140954, "laius": 58.3988054, "kiht": "hp_varjumiskoht" }, "geometry": { "type": "Point", "coordinates": [ 26.714095404913781, 58.39880544186002 ] } },
{ "type": "Feature", "properties": { "fid": 64591, "nimi": "TÜ Delta keskus", "alias": null, "ylemgrupp": "Riigihaldus", "grupp": "PPA", "alamgrupp": "avalik varjumiskoht", "tyypnimi": "avalik varjumiskoht", "aadress": "Tartu maakond, Tartu linn, Tartu linn, Narva mnt 18", "adrid": 3099027, "adsoid": "EE03733894", "mk": "Tartu maakond", "ov": "Tartu linn", "ay": "Tartu linn", "www": null, "url": null, "email": null, "telefon": null, "allikas": "SMIT.Päästeameti avaandmed", "andmeseis": "02.04.2024", "poi_id": 226043, "id": null, "vid": "LÕ20855", "tyyp": 150301, "x": 659353, "y": 6474889, "pikkus": 26.7250661, "laius": 58.3853332, "kiht": "hp_varjumiskoht" }, "geometry": { "type": "Point", "coordinates": [ 26.725066104907878, 58.385333172720706 ] } },
{ "type": "Feature", "properties": { "fid": 64592, "nimi": "TÜ füüsika instituudi õppehoone", "alias": null, "ylemgrupp": "Riigihaldus", "grupp": "PPA", "alamgrupp": "avalik varjumiskoht", "tyypnimi": "avalik varjumiskoht", "aadress": "Tartu maakond, Tartu linn, Tartu linn, W. Ostwaldi tn 1", "adrid": 3075008, "adsoid": "ME03204724", "mk": "Tartu maakond", "ov": "Tartu linn", "ay": "Tartu linn", "www": null, "url": null, "email": null, "telefon": null, "allikas": "SMIT.Päästeameti avaandmed", "andmeseis": "02.04.2024", "poi_id": 226044, "id": null, "vid": "LÕ94587", "tyyp": 150301, "x": 657416, "y": 6472687, "pikkus": 26.6904717, "laius": 58.3662779, "kiht": "hp_varjumiskoht" }, "geometry": { "type": "Point", "coordinates": [ 26.690471681923377, 58.366277883296426 ] } },
{ "type": "Feature", "properties": { "fid": 64593, "nimi": "TÜ humanitaarteaduste õppehoone", "alias": null, "ylemgrupp": "Riigihaldus", "grupp": "PPA", "alamgrupp": "avalik varjumiskoht", "tyypnimi": "avalik varjumiskoht", "aadress": "Tartu maakond, Tartu linn, Tartu linn, Lossi tn 3", "adrid": 3082413, "adsoid": "ME00769762", "mk": "Tartu maakond", "ov": "Tartu linn", "ay": "Tartu linn", "www": null, "url": null, "email": null, "telefon": null, "allikas": "SMIT.Päästeameti avaandmed", "andmeseis": "02.04.2024", "poi_id": 226045, "id": null, "vid": "LÕ29544", "tyyp": 150301, "x": 659067, "y": 6474302, "pikkus": 26.7197715, "laius": 58.3801656, "kiht": "hp_varjumiskoht" }, "geometry": { "type": "Point", "coordinates": [ 26.719771531989402, 58.38016558204761 ] } },
{ "type": "Feature", "properties": { "fid": 64658, "nimi": "TÜ raamatukogu", "alias": null, "ylemgrupp": "Riigihaldus", "grupp": "PPA", "alamgrupp": "avalik varjumiskoht", "tyypnimi": "avalik varjumiskoht", "aadress": "Tartu maakond, Tartu linn, Tartu linn, W. Struve tn 1", "adrid": 3052286, "adsoid": "ME01125305", "mk": "Tartu maakond", "ov": "Tartu linn", "ay": "Tartu linn", "www": null, "url": null, "email": null, "telefon": null, "allikas": "SMIT.Päästeameti avaandmed", "andmeseis": "02.04.2024", "poi_id": 226046, "id": null, "vid": "LÕ55150", "tyyp": 150301, "x": 659131, "y": 6473911, "pikkus": 26.7206009, "laius": 58.3766422, "kiht": "hp_varjumiskoht" }, "geometry": { "type": "Point", "coordinates": [ 26.720600869904843, 58.376642183842101 ] } },
{ "type": "Feature", "properties": { "fid": 64779, "nimi": "Herbert Masingu Kool", "alias": null, "ylemgrupp": "Riigihaldus", "grupp": "PPA", "alamgrupp": "avalik varjumiskoht", "tyypnimi": "avalik varjumiskoht", "aadress": "Tartu maakond, Tartu linn, Tartu linn, Vanemuise tn 33", "adrid": 3067846, "adsoid": "ME00772442", "mk": "Tartu maakond", "ov": "Tartu linn", "ay": "Tartu linn", "www": null, "url": null, "email": null, "telefon": null, "allikas": "SMIT.Päästeameti avaandmed", "andmeseis": "02.04.2024", "poi_id": 226078, "id": null, "vid": "LÕ20695", "tyyp": 150301, "x": 659100, "y": 6473816, "pikkus": 26.7200021, "laius": 58.3758003, "kiht": "hp_varjumiskoht" }, "geometry": { "type": "Point", "coordinates": [ 26.720002142396542, 58.375800305864047 ] } },
{ "type": "Feature", "properties": { "fid": 64780, "nimi": "Hugo Treffneri Gümnaasium", "alias": null, "ylemgrupp": "Riigihaldus", "grupp": "PPA", "alamgrupp": "avalik varjumiskoht", "tyypnimi": "avalik varjumiskoht", "aadress": "Tartu maakond, Tartu linn, Tartu linn, Munga tn 12", "adrid": 3079601, "adsoid": "ME00750203", "mk": "Tartu maakond", "ov": "Tartu linn", "ay": "Tartu linn", "www": null, "url": null, "email": null, "telefon": null, "allikas": "SMIT.Päästeameti avaandmed", "andmeseis": "02.04.2024", "poi_id": 226080, "id": null, "vid": "LÕ28799", "tyyp": 150301, "x": 659099, "y": 6474539, "pikkus": 26.7204832, "laius": 58.3822801, "kiht": "hp_varjumiskoht" }, "geometry": { "type": "Point", "coordinates": [ 26.720483189636131, 58.382280051289897 ] } },
{ "type": "Feature", "properties": { "fid": 64791, "nimi": "Kristjan Jaak Petersoni Gümnaasium", "alias": null, "ylemgrupp": "Riigihaldus", "grupp": "PPA", "alamgrupp": "avalik varjumiskoht", "tyypnimi": "avalik varjumiskoht", "aadress": "Tartu maakond, Tartu linn, Tartu linn, Kaunase pst 70", "adrid": 3055060, "adsoid": "ME00751916", "mk": "Tartu maakond", "ov": "Tartu linn", "ay": "Tartu linn", "www": null, "url": null, "email": null, "telefon": null, "allikas": "SMIT.Päästeameti avaandmed", "andmeseis": "02.04.2024", "poi_id": 226102, "id": null, "vid": "LÕ77563", "tyyp": 150301, "x": 662137, "y": 6473982, "pikkus": 26.771987, "laius": 58.376167, "kiht": "hp_varjumiskoht" }, "geometry": { "type": "Point", "coordinates": [ 26.771987009909534, 58.376167022900013 ] } },
{ "type": "Feature", "properties": { "fid": 81242, "nimi": "Tartu Rakenduslik Kolledž (ühiselamu)", "alias": null, "ylemgrupp": "Riigihaldus", "grupp": "pääste", "alamgrupp": "avalik varjumiskoht", "tyypnimi": "avalik varjumiskoht", "aadress": "Tartu maakond, Tartu linn, Tartu linn, Põllu tn 11c", "adrid": 3046918, "adsoid": "EE00770520", "mk": "Tartu maakond", "ov": "Tartu linn", "ay": "Tartu linn", "www": null, "url": null, "email": null, "telefon": null, "allikas": "SMIT.Päästeameti avaandmed", "andmeseis": "02.04.2024", "poi_id": 234458, "id": null, "vid": "LÕ43857", "tyyp": 150301, "x": 658704, "y": 6476462, "pikkus": 26.7150645, "laius": 58.3996814, "kiht": "hp_varjumiskoht" }, "geometry": { "type": "Point", "coordinates": [ 26.71506450812414, 58.399681351354175 ] } }
]
}
